ION SCV-004             
1 50993U 22002K   26068.68892644  .00006538  00000+0  23198-3 0  9998
2 50993  97.2961 128.2294 0007216   1.6783 358.4480 15.29369331230088
STARLINK-35861          
1 66355U 25254H   26068.76237742  .00028465  00000+0  96962-3 0  9992
2 66355  53.1583 232.3413 0001061 104.1985 255.9133 15.30195905 18988
